{"type": "FeatureCollection", "features": [ {"type": "Feature", "properties": {"norad_id": 33867, "name": "IRIDIUM 33 DEB", "group": "iridium-33-debris", "lat": 55.05986903897203, "lon": 165.5921579186868, "alt_km": 361.00877000064247, "timestamp": "2025-12-11T08:58:27.509974+00:00", "meta": {"OBJECT_NAME": "IRIDIUM 33 DEB", "OBJECT_ID": "1997-051AL", "EPOCH": "2025-12-11T00:46:09.488064", "MEAN_MOTION": 15.6435787, "ECCENTRICITY": 0.0013206, "INCLINATION": 86.364, "RA_OF_ASC_NODE": 350.9911, "ARG_OF_PERICENTER": 90.6503, "MEAN_ANOMALY": 269.6278, "EPHEMERIS_TYPE": 0, "CLASSIFICATION_TYPE": "U", "NORAD_CAT_ID": 33867, "ELEMENT_SET_NO": 999, "REV_AT_EPOCH": 89484, "BSTAR": 0.0092293, "MEAN_MOTION_DOT": 0.00975243, "MEAN_MOTION_DDOT": 0}, "tle": {"line1": "1 33867U 97051AL  25345.03205426  .00975243  00000+0  92293-2 0  9996", "line2": "2 33867  86.3640 350.9911 0013206  90.6503 269.6278 15.64357870894848"}}, "geometry": {"type": "Point", "coordinates": [165.5921579186868, 55.05986903897203]}}, {"type": "Feature", "properties": {"norad_id": 33870, "name": "IRIDIUM 33 DEB", "group": "iridium-33-debris", "lat": 61.20638349116751, "lon": 65.4705213811854, "alt_km": 741.1883233855651, "timestamp": "2025-12-11T08:58:27.509985+00:00", "meta": {"OBJECT_NAME": "IRIDIUM 33 DEB", "OBJECT_ID": "1997-051AP", "EPOCH": "2025-12-11T05:37:02.619840", "MEAN_MOTION": 14.45838487, "ECCENTRICITY": 0.0021324, "INCLINATION": 86.3744, "RA_OF_ASC_NODE": 58.9059, "ARG_OF_PERICENTER": 182.8727, "MEAN_ANOMALY": 231.2371, "EPHEMERIS_TYPE": 0, "CLASSIFICATION_TYPE": "U", "NORAD_CAT_ID": 33870, "ELEMENT_SET_NO": 999, "REV_AT_EPOCH": 88115, "BSTAR": 0.0012319, "MEAN_MOTION_DOT": 4.403e-05, "MEAN_MOTION_DDOT": 0}, "tle": {"line1": "1 33870U 97051AP  25345.23405810  .00004403  00000+0  12319-2 0  9993", "line2": "2 33870  86.3744  58.9059 0021324 182.8727 231.2371 14.45838487881152"}}, "geometry": {"type": "Point", "coordinates": [65.4705213811854, 61.20638349116751]}}, {"type": "Feature", "properties": {"norad_id": 33881, "name": "IRIDIUM 33 DEB", "group": "iridium-33-debris", "lat": -57.824689851939084, "lon": -66.89919707270877, "alt_km": 688.9674255695309, "timestamp": "2025-12-11T08:58:27.509996+00:00", "meta": {"OBJECT_NAME": "IRIDIUM 33 DEB", "OBJECT_ID": "1997-051BA", "EPOCH": "2025-12-10T19:23:39.783840", "MEAN_MOTION": 14.56512734, "ECCENTRICITY": 0.00614461, "INCLINATION": 86.3863, "RA_OF_ASC_NODE": 107.5816, "ARG_OF_PERICENTER": 180.8783, "MEAN_ANOMALY": 331.4545, "EPHEMERIS_TYPE": 0, "CLASSIFICATION_TYPE": "U", "NORAD_CAT_ID": 33881, "ELEMENT_SET_NO": 999, "REV_AT_EPOCH": 87472, "BSTAR": 0.0031554403, "MEAN_MOTION_DOT": 0.00014437, "MEAN_MOTION_DDOT": 0}, "tle": {"line1": "1 33881U 97051BA  25344.80809935  .00014437  00000+0  31554-2 0  9993", "line2": "2 33881  86.3863 107.5816 0061446 180.8783 331.4545 14.56512734874724"}}, "geometry": {"type": "Point", "coordinates": [-66.89919707270877, -57.824689851939084]}}, {"type": "Feature", "properties": {"norad_id": 33884, "name": "IRIDIUM 33 DEB", "group": "iridium-33-debris", "lat": 80.96115263966652, "lon": 33.95634298778895, "alt_km": 632.9163482732811, "timestamp": "2025-12-11T08:58:27.510007+00:00", "meta": {"OBJECT_NAME": "IRIDIUM 33 DEB", "OBJECT_ID": "1997-051BD", "EPOCH": "2025-12-11T02:20:45.458304", "MEAN_MOTION": 14.77374532, "ECCENTRICITY": 0.000987, "INCLINATION": 86.3697, "RA_OF_ASC_NODE": 10.5592, "ARG_OF_PERICENTER": 330.1286, "MEAN_ANOMALY": 83.5788, "EPHEMERIS_TYPE": 0, "CLASSIFICATION_TYPE": "U", "NORAD_CAT_ID": 33884, "ELEMENT_SET_NO": 999, "REV_AT_EPOCH": 88823, "BSTAR": 0.0021764, "MEAN_MOTION_DOT": 0.00015524, "MEAN_MOTION_DDOT": 0}, "tle": {"line1": "1 33884U 97051BD  25345.09774836  .00015524  00000+0  21764-2 0  9999", "line2": "2 33884  86.3697  10.5592 0009870 330.1286  83.5788 14.77374532888237"}}, "geometry": {"type": "Point", "coordinates": [33.95634298778895, 80.96115263966652]}}, {"type": "Feature", "properties": {"norad_id": 33886, "name": "IRIDIUM 33 DEB", "group": "iridium-33-debris", "lat": -30.381354903681178, "lon": -110.07119078159633, "alt_km": 770.6418786317818, "timestamp": "2025-12-11T08:58:27.510018+00:00", "meta": {"OBJECT_NAME": "IRIDIUM 33 DEB", "OBJECT_ID": "1997-051BF", "EPOCH": "2025-12-11T04:44:47.359968", "MEAN_MOTION": 14.36048964, "ECCENTRICITY": 0.0012214, "INCLINATION": 86.3829, "RA_OF_ASC_NODE": 67.8777, "ARG_OF_PERICENTER": 247.7882, "MEAN_ANOMALY": 132.5086, "EPHEMERIS_TYPE": 0, "CLASSIFICATION_TYPE": "U", "NORAD_CAT_ID": 33886, "ELEMENT_SET_NO": 999, "REV_AT_EPOCH": 88030, "BSTAR": 0.00030161, "MEAN_MOTION_DOT": 8.97e-06, "MEAN_MOTION_DDOT": 0}, "tle": {"line1": "1 33886U 97051BF  25345.19777037  .00000897  00000+0  30161-3 0  9997", "line2": "2 33886  86.3829  67.8777 0012214 247.7882 132.5086 14.36048964880305"}}, "geometry": {"type": "Point", "coordinates": [-110.07119078159633, -30.381354903681178]}}, {"type": "Feature", "properties": {"norad_id": 33887, "name": "IRIDIUM 33 DEB", "group": "iridium-33-debris", "lat": 38.92972767024759, "lon": -179.0115254410919, "alt_km": 764.9589736597063, "timestamp": "2025-12-11T08:58:27.510029+00:00", "meta": {"OBJECT_NAME": "IRIDIUM 33 DEB", "OBJECT_ID": "1997-051BG", "EPOCH": "2025-12-11T01:55:48.688032", "MEAN_MOTION": 14.37218579, "ECCENTRICITY": 0.0004312, "INCLINATION": 86.3045, "RA_OF_ASC_NODE": 4.1074, "ARG_OF_PERICENTER": 234.0797, "MEAN_ANOMALY": 189.2272, "EPHEMERIS_TYPE": 0, "CLASSIFICATION_TYPE": "U", "NORAD_CAT_ID": 33887, "ELEMENT_SET_NO": 999, "REV_AT_EPOCH": 88141, "BSTAR": 0.00021085, "MEAN_MOTION_DOT": 6.47e-06, "MEAN_MOTION_DDOT": 0}, "tle": {"line1": "1 33887U 97051BG  25345.08042463  .00000647  00000+0  21085-3 0  9992", "line2": "2 33887  86.3045   4.1074 0004312 234.0797 189.2272 14.37218579881415"}}, "geometry": {"type": "Point", "coordinates": [-179.0115254410919, 38.92972767024759]}}, {"type": "Feature", "properties": {"norad_id": 33953, "name": "IRIDIUM 33 DEB", "group": "iridium-33-debris", "lat": -85.69951926504898, "lon": -68.3902058470006, "alt_km": 728.1702973101592, "timestamp": "2025-12-11T08:58:27.510040+00:00", "meta": {"OBJECT_NAME": "IRIDIUM 33 DEB", "OBJECT_ID": "1997-051BN", "EPOCH": "2025-12-11T04:34:53.054112", "MEAN_MOTION": 14.55298584, "ECCENTRICITY": 0.0018424, "INCLINATION": 86.384, "RA_OF_ASC_NODE": 54.4512, "ARG_OF_PERICENTER": 107.5476, "MEAN_ANOMALY": 281.7204, "EPHEMERIS_TYPE": 0, "CLASSIFICATION_TYPE": "U", "NORAD_CAT_ID": 33953, "ELEMENT_SET_NO": 999, "REV_AT_EPOCH": 88281, "BSTAR": 0.0018237, "MEAN_MOTION_DOT": 7.943e-05, "MEAN_MOTION_DDOT": 0}, "tle": {"line1": "1 33953U 97051BN  25345.19089183  .00007943  00000+0  18237-2 0  9998", "line2": "2 33953  86.3840  54.4512 0018424 107.5476 281.7204 14.55298584882816"}}, "geometry": {"type": "Point", "coordinates": [-68.3902058470006, -85.69951926504898]}}, {"type": "Feature", "properties": {"norad_id": 33960, "name": "IRIDIUM 33 DEB", "group": "iridium-33-debris", "lat": -74.26017628366806, "lon": -83.2875337060141, "alt_km": 624.7210871084471, "timestamp": "2025-12-11T08:58:27.510051+00:00", "meta": {"OBJECT_NAME": "IRIDIUM 33 DEB", "OBJECT_ID": "1997-051BV", "EPOCH": "2025-12-11T02:56:14.946144", "MEAN_MOTION": 14.85043606, "ECCENTRICITY": 0.000749, "INCLINATION": 86.253, "RA_OF_ASC_NODE": 290.277, "ARG_OF_PERICENTER": 64.8311, "MEAN_ANOMALY": 316.6965, "EPHEMERIS_TYPE": 0, "CLASSIFICATION_TYPE": "U", "NORAD_CAT_ID": 33960, "ELEMENT_SET_NO": 999, "REV_AT_EPOCH": 88843, "BSTAR": 0.0048513, "MEAN_MOTION_DOT": 0.00041654, "MEAN_MOTION_DDOT": 0}, "tle": {"line1": "1 33960U 97051BV  25345.12239521  .00041654  00000+0  48513-2 0  9999", "line2": "2 33960  86.2530 290.2770 0007490  64.8311 316.6965 14.85043606888431"}}, "geometry": {"type": "Point", "coordinates": [-83.2875337060141, -74.26017628366806]}}, {"type": "Feature", "properties": {"norad_id": 33966, "name": "IRIDIUM 33 DEB", "group": "iridium-33-debris", "lat": 61.42432420112507, "lon": 53.26514686594414, "alt_km": 724.4961435111354, "timestamp": "2025-12-11T08:58:27.510062+00:00", "meta": {"OBJECT_NAME": "IRIDIUM 33 DEB", "OBJECT_ID": "1997-051CB", "EPOCH": "2025-12-11T05:39:53.110368", "MEAN_MOTION": 14.49584048, "ECCENTRICITY": 0.0007232, "INCLINATION": 86.3922, "RA_OF_ASC_NODE": 46.6724, "ARG_OF_PERICENTER": 193.2302, "MEAN_ANOMALY": 229.3577, "EPHEMERIS_TYPE": 0, "CLASSIFICATION_TYPE": "U", "NORAD_CAT_ID": 33966, "ELEMENT_SET_NO": 999, "REV_AT_EPOCH": 88420, "BSTAR": 0.0008231, "MEAN_MOTION_DOT": 3.179e-05, "MEAN_MOTION_DDOT": 0}, "tle": {"line1": "1 33966U 97051CB  25345.23603137  .00003179  00000+0  82310-3 0  9999", "line2": "2 33966  86.3922  46.6724 0007232 193.2302 229.3577 14.49584048884206"}}, "geometry": {"type": "Point", "coordinates": [53.26514686594414, 61.42432420112507]}}, {"type": "Feature", "properties": {"norad_id": 34071, "name": "IRIDIUM 33 DEB", "group": "iridium-33-debris", "lat": 50.985190608746244, "lon": -166.10204128092104, "alt_km": 716.1146036572927, "timestamp": "2025-12-11T08:58:27.510072+00:00", "meta": {"OBJECT_NAME": "IRIDIUM 33 DEB", "OBJECT_ID": "1997-051CE", "EPOCH": "2025-12-11T03:24:43.710048", "MEAN_MOTION": 14.49452844, "ECCENTRICITY": 0.0009903, "INCLINATION": 86.3458, "RA_OF_ASC_NODE": 18.5226, "ARG_OF_PERICENTER": 111.9344, "MEAN_ANOMALY": 248.2914, "EPHEMERIS_TYPE": 0, "CLASSIFICATION_TYPE": "U", "NORAD_CAT_ID": 34071, "ELEMENT_SET_NO": 999, "REV_AT_EPOCH": 88311, "BSTAR": 0.00086512, "MEAN_MOTION_DOT": 3.332e-05, "MEAN_MOTION_DDOT": 0}, "tle": {"line1": "1 34071U 97051CE  25345.14217257  .00003332  00000+0  86512-3 0  9990", "line2": "2 34071  86.3458  18.5226 0009903 111.9344 248.2914 14.49452844883115"}}, "geometry": {"type": "Point", "coordinates": [-166.10204128092104, 50.985190608746244]}}]}